start=new Date('2022-04-14T00:00:00.000Z').valueOf();
sats=[{"CENTER_NAME":"EARTH","EPHEMERIS_TYPE":"0","BSTAR":"0.00346840000000","TLE_LINE2":"2 49132  69.9995 289.3259 0003151 282.5436 345.2771 14.98303354  3592","REF_FRAME":"TEME","ECCENTRICITY":"0.00031510","DECAY_DATE":null,"INCLINATION":"69.9995","CLASSIFICATION_TYPE":"U","MEAN_MOTION_DDOT":"0.0000000000000","SITE":"AFWTR","LAUNCH_DATE":"2021-09-14","EPOCH":"2022-04-13T22:00:00.999936","NORAD_CAT_ID":"49132","OBJECT_TYPE":"PAYLOAD","RA_OF_ASC_NODE":"289.3259","TIME_SYSTEM":"UTC","GP_ID":"201175892","RCS_SIZE":"LARGE","APOAPSIS":"574.330","REV_AT_EPOCH":"359","COUNTRY_CODE":"US","TLE_LINE1":"1 49132U 21082C   22103.91667824  .00041509  00000-0  34684-2 0  9999","MEAN_ANOMALY":"345.2771","OBJECT_NAME":"STARLINK-3090","MEAN_MOTION_DOT":"0.00041509","ELEMENT_SET_NO":"999","MEAN_MOTION":"14.98303354","MEAN_ELEMENT_THEORY":"SGP4","FILE":"3400454","PERIAPSIS":"569.950","SEMIMAJOR_AXIS":"6950.275","PERIOD":"96.109","ARG_OF_PERICENTER":"282.5436","OBJECT_ID":"2021-082C"},{"CLASSIFICATION_TYPE":"U","MEAN_MOTION_DDOT":"0.0000000000000","LAUNCH_DATE":"2021-09-14","SITE":"AFWTR","EPOCH":"2022-04-13T22:00:00.999936","INCLINATION":"70.0001","EPHEMERIS_TYPE":"0","CENTER_NAME":"EARTH","TLE_LINE2":"2 49133  70.0001 289.3315 0003320 276.8554  16.6626 14.98314487  3599","BSTAR":"0.00330840000000","REF_FRAME":"TEME","ECCENTRICITY":"0.00033200","DECAY_DATE":null,"ELEMENT_SET_NO":"999","MEAN_ELEMENT_THEORY":"SGP4","MEAN_MOTION":"14.98314487","FILE":"3400454","ARG_OF_PERICENTER":"276.8554","OBJECT_ID":"2021-082D","PERIAPSIS":"569.798","PERIOD":"96.108","SEMIMAJOR_AXIS":"6950.241","TLE_LINE1":"1 49133U 21082D   22103.91667824  .00039591  00000-0  33084-2 0  9991","MEAN_MOTION_DOT":"0.00039591","OBJECT_NAME":"STARLINK-3077","MEAN_ANOMALY":"16.6626","REV_AT_EPOCH":"359","COUNTRY_CODE":"US","OBJECT_TYPE":"PAYLOAD","NORAD_CAT_ID":"49133","TIME_SYSTEM":"UTC","RA_OF_ASC_NODE":"289.3315","RCS_SIZE":"LARGE","GP_ID":"201176142","APOAPSIS":"574.413"},{"BSTAR":"0.00318270000000","TLE_LINE2":"2 49134  70.0011 289.3181 0003450 283.3885  35.8943 14.98307641  3584","EPHEMERIS_TYPE":"0","CENTER_NAME":"EARTH","ECCENTRICITY":"0.00034500","DECAY_DATE":null,"REF_FRAME":"TEME","INCLINATION":"70.0011","MEAN_MOTION_DDOT":"0.0000000000000","CLASSIFICATION_TYPE":"U","EPOCH":"2022-04-13T22:00:00.999936","LAUNCH_DATE":"2021-09-14","SITE":"AFWTR","RA_OF_ASC_NODE":"289.3181","TIME_SYSTEM":"UTC","OBJECT_TYPE":"PAYLOAD","NORAD_CAT_ID":"49134","APOAPSIS":"574.525","RCS_SIZE":"LARGE","GP_ID":"201177394","REV_AT_EPOCH":"358","COUNTRY_CODE":"US","TLE_LINE1":"1 49134U 21082E   22103.91667824  .00038068  00000-0  31827-2 0  9993","MEAN_MOTION_DOT":"0.00038068","MEAN_ANOMALY":"35.8943","OBJECT_NAME":"STARLINK-3078","MEAN_ELEMENT_THEORY":"SGP4","MEAN_MOTION":"14.98307641","ELEMENT_SET_NO":"999","ARG_OF_PERICENTER":"283.3885","OBJECT_ID":"2021-082E","PERIAPSIS":"569.729","PERIOD":"96.108","SEMIMAJOR_AXIS":"6950.262","FILE":"3400454"},{"OBJECT_NAME":"STARLINK-3073","MEAN_ANOMALY":"61.0304","MEAN_MOTION_DOT":"-0.00712075","TLE_LINE1":"1 49135U 21082F   22103.91667824 -.00712075  00000-0 -12913-1 0  9997","PERIOD":"92.787","PERIAPSIS":"408.700","SEMIMAJOR_AXIS":"6789.204","OBJECT_ID":"2021-082F","ARG_OF_PERICENTER":"265.7225","FILE":"3400454","MEAN_MOTION":"15.51938477","MEAN_ELEMENT_THEORY":"SGP4","ELEMENT_SET_NO":"999","APOAPSIS":"413.437","GP_ID":"201177645","RCS_SIZE":"LARGE","RA_OF_ASC_NODE":"252.2633","TIME_SYSTEM":"UTC","NORAD_CAT_ID":"49135","OBJECT_TYPE":"PAYLOAD","COUNTRY_CODE":"US","REV_AT_EPOCH":"370","INCLINATION":"69.9999","EPOCH":"2022-04-13T22:00:00.999936","SITE":"AFWTR","LAUNCH_DATE":"2021-09-14","MEAN_MOTION_DDOT":"0.0000000000000","CLASSIFICATION_TYPE":"U","DECAY_DATE":null,"ECCENTRICITY":"0.00034890","REF_FRAME":"TEME","TLE_LINE2":"2 49135  69.9999 252.2633 0003489 265.7225  61.0304 15.51938477  3705","BSTAR":"-0.01291300000000","CENTER_NAME":"EARTH","EPHEMERIS_TYPE":"0"},{"MEAN_ELEMENT_THEORY":"SGP4","MEAN_MOTION":"14.96698623","ELEMENT_SET_NO":"999","ARG_OF_PERICENTER":"270.1171","OBJECT_ID":"2021-082G","PERIAPSIS":"574.891","SEMIMAJOR_AXIS":"6955.242","PERIOD":"96.212","FILE":"3400454","TLE_LINE1":"1 49136U 21082G   22103.91667824  .00038939  00000-0  33925-2 0  9993","MEAN_MOTION_DOT":"0.00038939","OBJECT_NAME":"STARLINK-3084","MEAN_ANOMALY":"293.7351","REV_AT_EPOCH":"358","COUNTRY_CODE":"US","TIME_SYSTEM":"UTC","RA_OF_ASC_NODE":"268.4557","OBJECT_TYPE":"PAYLOAD","NORAD_CAT_ID":"49136","APOAPSIS":"579.323","RCS_SIZE":"LARGE","GP_ID":"201176393","MEAN_MOTION_DDOT":"0.0000000000000","CLASSIFICATION_TYPE":"U","EPOCH":"2022-04-13T22:00:00.999936","LAUNCH_DATE":"2021-09-14","SITE":"AFWTR","INCLINATION":"69.9999","TLE_LINE2":"2 49136  69.9999 268.4557 0003186 270.1171 293.7351 14.96698623  3580","BSTAR":"0.00339250000000","EPHEMERIS_TYPE":"0","CENTER_NAME":"EARTH","ECCENTRICITY":"0.00031860","DECAY_DATE":null,"REF_FRAME":"TEME"},{"APOAPSIS":"579.306","GP_ID":"201176643","RCS_SIZE":"LARGE","TIME_SYSTEM":"UTC","RA_OF_ASC_NODE":"268.4800","NORAD_CAT_ID":"49137","OBJECT_TYPE":"PAYLOAD","COUNTRY_CODE":"US","REV_AT_EPOCH":"359","OBJECT_NAME":"STARLINK-3055","MEAN_ANOMALY":"304.5824","MEAN_MOTION_DOT":"0.00037866","TLE_LINE1":"1 49137U 21082H   22103.91667824  .00037866  00000-0  32997-2 0  9990","SEMIMAJOR_AXIS":"6955.239","PERIAPSIS":"574.901","PERIOD":"96.212","OBJECT_ID":"2021-082H","ARG_OF_PERICENTER":"277.2876","FILE":"3400454","MEAN_MOTION":"14.96699784","MEAN_ELEMENT_THEORY":"SGP4","ELEMENT_SET_NO":"999","ECCENTRICITY":"0.00031670","DECAY_DATE":null,"REF_FRAME":"TEME","BSTAR":"0.00329970000000","TLE_LINE2":"2 49137  69.9970 268.4800 0003167 277.2876 304.5824 14.96699784  3596","CENTER_NAME":"EARTH","EPHEMERIS_TYPE":"0","INCLINATION":"69.9970","EPOCH":"2022-04-13T22:00:00.999936","SITE":"AFWTR","LAUNCH_DATE":"2021-09-14","MEAN_MOTION_DDOT":"0.0000000000000","CLASSIFICATION_TYPE":"U"},{"TIME_SYSTEM":"UTC","RA_OF_ASC_NODE":"289.3248","NORAD_CAT_ID":"49138","OBJECT_TYPE":"PAYLOAD","APOAPSIS":"574.426","GP_ID":"201176894","RCS_SIZE":"LARGE","REV_AT_EPOCH":"359","COUNTRY_CODE":"US","TLE_LINE1":"1 49138U 21082J   22103.91667824  .00036968  00000-0  30909-2 0  9994","OBJECT_NAME":"STARLINK-3058","MEAN_ANOMALY":"71.6007","MEAN_MOTION_DOT":"0.00036968","MEAN_MOTION":"14.98313910","MEAN_ELEMENT_THEORY":"SGP4","ELEMENT_SET_NO":"999","PERIOD":"96.108","PERIAPSIS":"569.789","SEMIMAJOR_AXIS":"6950.243","ARG_OF_PERICENTER":"273.3408","OBJECT_ID":"2021-082J","FILE":"3400454","BSTAR":"0.00309090000000","TLE_LINE2":"2 49138  69.9994 289.3248 0003336 273.3408  71.6007 14.98313910  3598","CENTER_NAME":"EARTH","EPHEMERIS_TYPE":"0","ECCENTRICITY":"0.00033360","DECAY_DATE":null,"REF_FRAME":"TEME","INCLINATION":"69.9994","MEAN_MOTION_DDOT":"0.0000000000000","CLASSIFICATION_TYPE":"U","EPOCH":"2022-04-13T22:00:00.999936","SITE":"AFWTR","LAUNCH_DATE":"2021-09-14"},{"EPHEMERIS_TYPE":"0","CENTER_NAME":"EARTH","TLE_LINE2":"2 49139  69.9999 252.2564 0003495 269.6591  70.0439 15.52386173  3708","BSTAR":"-0.01271000000000","REF_FRAME":"TEME","DECAY_DATE":null,"ECCENTRICITY":"0.00034950","INCLINATION":"69.9999","CLASSIFICATION_TYPE":"U","MEAN_MOTION_DDOT":"0.0000000000000","LAUNCH_DATE":"2021-09-14","SITE":"AFWTR","EPOCH":"2022-04-13T22:00:00.999936","OBJECT_TYPE":"PAYLOAD","NORAD_CAT_ID":"49139","TIME_SYSTEM":"UTC","RA_OF_ASC_NODE":"252.2564","RCS_SIZE":"LARGE","GP_ID":"201177145","APOAPSIS":"412.136","REV_AT_EPOCH":"370","COUNTRY_CODE":"US","TLE_LINE1":"1 49139U 21082K   22103.91667824 -.00712275  00000-0 -12710-1 0  9998","MEAN_MOTION_DOT":"-0.00712275","OBJECT_NAME":"STARLINK-3057","MEAN_ANOMALY":"70.0439","ELEMENT_SET_NO":"999","MEAN_ELEMENT_THEORY":"SGP4","MEAN_MOTION":"15.52386173","FILE":"3400454","ARG_OF_PERICENTER":"269.6591","OBJECT_ID":"2021-082K","PERIAPSIS":"407.391","SEMIMAJOR_AXIS":"6787.898","PERIOD":"92.760"},{"CLASSIFICATION_TYPE":"U","MEAN_MOTION_DDOT":"0.0000000000000","SITE":"AFWTR","LAUNCH_DATE":"2021-09-14","EPOCH":"2022-04-13T22:00:00.999936","INCLINATION":"69.9999","CENTER_NAME":"EARTH","EPHEMERIS_TYPE":"0","BSTAR":"-0.01261600000000","TLE_LINE2":"2 49140  69.9999 252.2443 0003568 263.6826  93.5153 15.52597387  3706","REF_FRAME":"TEME","ECCENTRICITY":"0.00035680","DECAY_DATE":null,"ELEMENT_SET_NO":"999","MEAN_MOTION":"15.52597387","MEAN_ELEMENT_THEORY":"SGP4","FILE":"3400454","PERIAPSIS":"406.726","PERIOD":"92.748","SEMIMAJOR_AXIS":"6787.283","ARG_OF_PERICENTER":"263.6826","OBJECT_ID":"2021-082L","TLE_LINE1":"1 49140U 21082L   22103.91667824 -.00712433  00000-0 -12616-1 0  9991","OBJECT_NAME":"STARLINK-3118","MEAN_ANOMALY":"93.5153","MEAN_MOTION_DOT":"-0.00712433","REV_AT_EPOCH":"370","COUNTRY_CODE":"US","NORAD_CAT_ID":"49140","OBJECT_TYPE":"PAYLOAD","TIME_SYSTEM":"UTC","RA_OF_ASC_NODE":"252.2443","GP_ID":"201175893","RCS_SIZE":"LARGE","APOAPSIS":"411.569"},{"ELEMENT_SET_NO":"999","MEAN_MOTION":"14.98326423","MEAN_ELEMENT_THEORY":"SGP4","FILE":"3400454","PERIOD":"96.107","PERIAPSIS":"569.795","SEMIMAJOR_AXIS":"6950.204","ARG_OF_PERICENTER":"277.7434","OBJECT_ID":"2021-082M","TLE_LINE1":"1 49141U 21082M   22103.91667824  .00031300  00000-0  26195-2 0  9995","OBJECT_NAME":"STARLINK-3093","MEAN_ANOMALY":"92.9799","MEAN_MOTION_DOT":"0.00031300","REV_AT_EPOCH":"360","COUNTRY_CODE":"US","NORAD_CAT_ID":"49141","OBJECT_TYPE":"PAYLOAD","RA_OF_ASC_NODE":"289.3254","TIME_SYSTEM":"UTC","GP_ID":"201176143","RCS_SIZE":"LARGE","APOAPSIS":"574.343","CLASSIFICATION_TYPE":"U","MEAN_MOTION_DDOT":"0.0000000000000","SITE":"AFWTR","LAUNCH_DATE":"2021-09-14","EPOCH":"2022-04-13T22:00:00.999936","INCLINATION":"69.9995","CENTER_NAME":"EARTH","EPHEMERIS_TYPE":"0","TLE_LINE2":"2 49141  69.9995 289.3254 0003272 277.7434  92.9799 14.98326423  3605","BSTAR":"0.00261950000000","REF_FRAME":"TEME","DECAY_DATE":null,"ECCENTRICITY":"0.00032720"}];
